OBJECT_NAME,OBJECT_ID,EPOCH,MEAN_MOTION,ECCENTRICITY,INCLINATION,RA_OF_ASC_NODE,ARG_OF_PERICENTER,MEAN_ANOMALY,EPHEMERIS_TYPE,CLASSIFICATION_TYPE,NORAD_CAT_ID,ELEMENT_SET_NO,REV_AT_EPOCH,BSTAR,MEAN_MOTION_DOT,MEAN_MOTION_DDOT
INTELSAT 23 (IS-23),2012-057A,2026-07-23T09:18:36.520416,1.00269275,.00002667,0.0223,303.0734,240.0093,204.6726,0,U,38867,999,5031,0,-.28E-5,0
FM-6,2013-058A,2026-07-23T12:25:57.333216,1.00277537,.00008988,0.0104,26.5517,152.4109,192.4132,0,U,39360,999,4643,0,-.12E-6,0
INTELSAT 30 (IS-30),2014-062A,2026-07-23T06:06:14.253696,1.00270748,.00015355,0.0184,57.9753,343.4907,256.0281,0,U,40271,999,715,0,-.146E-5,0
DIRECTV 14,2014-078B,2026-07-23T08:29:25.465344,1.00272581,.00006415,0.0097,46.3610,353.0609,289.7825,0,U,40333,999,4240,0,-.121E-5,0
DIRECTV 15,2015-026A,2026-07-23T12:29:45.893184,1.00270610,.00004294,0.0238,80.3598,323.3497,342.1015,0,U,40663,999,4082,0,-.97E-6,0
SKY MEXICO-1,2015-026B,2026-07-23T06:22:38.754912,1.00270417,.0002746,0.0136,343.1539,153.1069,181.5917,0,U,40664,999,4081,0,-.23E-5,0
INTELSAT 34 (IS-34),2015-039A,2026-07-23T09:17:59.079840,1.00270542,.00005954,0.0089,14.4604,27.7318,342.9283,0,U,40874,999,3999,0,-.281E-5,0
INTELSAT 31 (IS-31),2016-035A,2026-07-23T06:04:43.078368,1.00271399,.0000732,0.0098,300.6066,2.7170,353.7911,0,U,41581,999,3704,0,-.146E-5,0
INTELSAT 36 (IS-36),2016-053A,2026-07-23T13:18:39.594816,1.00272577,.00021801,0.0121,39.7895,312.5927,217.0588,0,U,41747,999,3632,0,-.2E-6,0
INTELSAT 32E (IS-32E),2017-007B,2026-07-23T12:46:25.371840,1.00269098,.00005559,0.0215,52.5945,349.2871,47.8058,0,U,41945,999,3459,0,0,0
INTELSAT 35E (IS-35E),2017-041A,2026-07-23T09:23:58.506432,1.00271526,.00021323,0.0179,61.2992,57.8681,288.4512,0,U,42818,999,3317,0,-.233E-5,0
INTELSAT 37E (IS-37E),2017-059A,2026-07-23T09:28:35.562720,1.00267925,.00030139,0.0228,56.6410,71.3836,297.2602,0,U,42950,999,3242,0,0,0
AZERSPACE 2 (IS-38),2018-074A,2026-07-23T08:33:38.785824,1.00269800,.0001318,0.0174,47.4997,54.2391,12.8730,0,U,43632,999,2881,0,.141E-5,0
HORIZONS-3E,2018-074B,2026-07-23T13:47:14.353152,1.00272034,.00003154,0.0322,239.3133,79.1148,358.6734,0,U,43633,999,2870,0,-.26E-6,0
AT&T T-16,2019-034A,2026-07-23T02:14:23.451072,1.00273461,.00006317,0.0154,76.6092,292.9337,224.0216,0,U,44333,999,2599,0,-.111E-5,0
INTELSAT 39 (IS-39),2019-049B,2026-07-23T09:51:18.386208,1.00271663,.0000903,0.0158,46.1399,318.3964,146.3726,0,U,44476,999,2549,0,.38E-6,0
GALAXY 30 (G-30),2020-056C,2026-07-23T06:39:00.329760,1.00271616,.00022684,0.0140,70.3799,48.6314,156.7393,0,U,46114,999,2165,0,.42E-6,0
GALAXY 33 (G-33),2022-128A,2026-07-23T14:27:20.703744,1.00271354,.00020414,0.0156,17.2912,96.7538,271.1186,0,U,54026,999,1410,0,.84E-6,0
GALAXY 34 (G-34),2022-128B,2026-07-23T12:22:20.179776,1.00270844,.0001745,0.0096,46.9851,68.7858,242.0534,0,U,54027,999,1427,0,.64E-6,0
GALAXY 31 (G-31),2022-153A,2026-07-22T22:43:20.965152,1.00272498,.00014492,0.0160,65.1214,61.9203,33.4900,0,U,54243,999,749,0,0,0
GALAXY 32 (G-32),2022-153B,2026-07-23T14:15:49.114080,1.00272188,.00015182,0.0105,46.0803,12.5953,5.6072,0,U,54244,999,1350,0,-.169E-5,0
GALAXY 35 (G-35),2022-170A,2026-07-23T14:15:11.674368,1.00269675,.00021738,0.0140,62.8385,58.7958,300.3879,0,U,54741,999,1325,0,0,0
GALAXY 36 (G-36),2022-170B,2026-07-23T14:16:19.066368,1.00272097,.00027797,0.0227,122.6666,338.5344,325.2018,0,U,54742,999,1313,0,-.18E-5,0
GALAXY 37 (G-37),2023-112A,2026-07-23T12:06:38.778336,1.00271571,.0002134,0.0152,66.8102,49.1315,239.9543,0,U,57493,999,1090,0,.53E-6,0
