INTELSAT 23 (IS-23)     
1 38867U 12057A   26204.38792269 -.00000280  00000+0  00000+0 0  9996
2 38867   0.0223 303.0734 0000266 240.0093 204.6726  1.00269275 50311
FM-6                    
1 39360U 13058A   26204.51802469 -.00000012  00000+0  00000+0 0  9999
2 39360   0.0104  26.5517 0000898 152.4109 192.4132  1.00277537 46432
INTELSAT 30 (IS-30)     
1 40271U 14062A   26204.25433164 -.00000146  00000+0  00000+0 0  9999
2 40271   0.0184  57.9753 0001535 343.4907 256.0281  1.00270748  7155
DIRECTV 14              
1 40333U 14078B   26204.35376696 -.00000121  00000+0  00000+0 0  9995
2 40333   0.0097  46.3610 0000641 353.0609 289.7825  1.00272581 42405
DIRECTV 15              
1 40663U 15026A   26204.52067006 -.00000097  00000+0  00000+0 0  9998
2 40663   0.0238  80.3598 0000429 323.3497 342.1015  1.00270610 40820
SKY MEXICO-1            
1 40664U 15026B   26204.26572633 -.00000230  00000+0  00000+0 0  9996
2 40664   0.0136 343.1539 0002746 153.1069 181.5917  1.00270417 40811
INTELSAT 34 (IS-34)     
1 40874U 15039A   26204.38748935 -.00000281  00000+0  00000+0 0  9992
2 40874   0.0089  14.4604 0000595  27.7318 342.9283  1.00270542 39990
INTELSAT 31 (IS-31)     
1 41581U 16035A   26204.25327637 -.00000146  00000+0  00000+0 0  9993
2 41581   0.0098 300.6066 0000732   2.7170 353.7911  1.00271399 37043
INTELSAT 36 (IS-36)     
1 41747U 16053A   26204.55462494 -.00000020  00000+0  00000+0 0  9992
2 41747   0.0121  39.7895 0002180 312.5927 217.0588  1.00272577 36326
INTELSAT 32E (IS-32E)   
1 41945U 17007B   26204.53223810  .00000000  00000+0  00000+0 0  9994
2 41945   0.0215  52.5945 0000555 349.2871  47.8058  1.00269098 34590
INTELSAT 35E (IS-35E)   
1 42818U 17041A   26204.39164938 -.00000233  00000+0  00000+0 0  9990
2 42818   0.0179  61.2992 0002132  57.8681 288.4512  1.00271526 33172
INTELSAT 37E (IS-37E)   
1 42950U 17059A   26204.39485605  .00000000  00000+0  00000+0 0  9994
2 42950   0.0228  56.6410 0003013  71.3836 297.2602  1.00267925 32422
AZERSPACE 2 (IS-38)     
1 43632U 18074A   26204.35669891  .00000141  00000+0  00000+0 0  9993
2 43632   0.0174  47.4997 0001318  54.2391  12.8730  1.00269800 28815
HORIZONS-3E             
1 43633U 18074B   26204.57447168 -.00000026  00000+0  00000+0 0  9992
2 43633   0.0322 239.3133 0000315  79.1148 358.6734  1.00272034 28703
AT&T T-16               
1 44333U 19034A   26204.09332698 -.00000111  00000+0  00000+0 0  9990
2 44333   0.0154  76.6092 0000631 292.9337 224.0216  1.00273461 25990
INTELSAT 39 (IS-39)     
1 44476U 19049B   26204.41062947  .00000038  00000+0  00000+0 0  9994
2 44476   0.0158  46.1399 0000903 318.3964 146.3726  1.00271663 25494
GALAXY 30 (G-30)        
1 46114U 20056C   26204.27708715  .00000042  00000+0  00000+0 0  9994
2 46114   0.0140  70.3799 0002268  48.6314 156.7393  1.00271616 21654
GALAXY 33 (G-33)        
1 54026U 22128A   26204.60232296  .00000084  00000+0  00000+0 0  9996
2 54026   0.0156  17.2912 0002041  96.7538 271.1186  1.00271354 14103
GALAXY 34 (G-34)        
1 54027U 22128B   26204.51551134  .00000064  00000+0  00000+0 0  9990
2 54027   0.0096  46.9851 0001745  68.7858 242.0534  1.00270844 14277
GALAXY 31 (G-31)        
1 54243U 22153A   26203.94677043  .00000000  00000+0  00000+0 0  9992
2 54243   0.0160  65.1214 0001449  61.9203  33.4900  1.00272498  7497
GALAXY 32 (G-32)        
1 54244U 22153B   26204.59431845 -.00000169  00000+0  00000+0 0  9990
2 54244   0.0105  46.0803 0001518  12.5953   5.6072  1.00272188 13506
GALAXY 35 (G-35)        
1 54741U 22170A   26204.59388512  .00000000  00000+0  00000+0 0  9996
2 54741   0.0140  62.8385 0002173  58.7958 300.3879  1.00269675 13252
GALAXY 36 (G-36)        
1 54742U 22170B   26204.59466512 -.00000180  00000+0  00000+0 0  9994
2 54742   0.0227 122.6666 0002779 338.5344 325.2018  1.00272097 13136
GALAXY 37 (G-37)        
1 57493U 23112A   26204.50461549  .00000053  00000+0  00000+0 0  9991
2 57493   0.0152  66.8102 0002134  49.1315 239.9543  1.00271571 10903
